{"spkid": "50260316", "covariance": {"epoch": "2459879.5", "labels": ["e", "q", "tp", "node", "peri", "i"], "data": [["1.142612780557423E-16", "-3.24264737935844E-16", "-1.539444777244432E-14", "-2.51890723649293E-14", "1.297958107924556E-14", "-1.142196496843825E-15"], ["-3.24264737935844E-16", "9.221921580904846E-16", "5.003701773188976E-14", "7.480820029290985E-14", "-3.427094133815314E-14", "2.897803004916249E-15"], ["-1.539444777244432E-14", "5.003701773188976E-14", "4.027467932731246E-11", "1.496165202732968E-11", "1.878085822045988E-11", "-1.465232152310569E-12"], ["-2.51890723649293E-14", "7.480820029290985E-14", "1.496165202732968E-11", "8.004748385201895E-11", "-6.149470693161274E-11", "-9.787789949792318E-12"], ["1.297958107924556E-14", "-3.427094133815314E-14", "1.878085822045988E-11", "-6.149470693161274E-11", "7.65341723482744E-11", "8.764282537914684E-12"], ["-1.142196496843825E-15", "2.897803004916249E-15", "-1.465232152310569E-12", "-9.787789949792318E-12", "8.764282537914684E-12", "1.236347274592771E-11"]], "elements": [{"label": "e", "units": null, "title": "eccentricity", "value": ".6511514937858049", "name": "e", "sigma": 1.06893067153928e-08}, {"name": "q", "sigma": 3.03676169313709e-08, "value": ".9835629633946713", "title": "perihelion distance", "units": "au", "label": "q"}, {"label": "tp", "title": "time of perihelion passage", "value": "2460297.144439148683", "units": "TDB", "name": "tp", "sigma": 6.34623347563832e-06}, {"label": "node", "units": "deg", "value": "76.40954895955521", "title": "longitude of the ascending node", "sigma": 8.946925944257e-06, "name": "om"}, {"label": "peri", "sigma": 8.74838112728717e-06, "name": "w", "title": "argument of perihelion", "value": "20.45418301820183", "units": "deg"}, {"title": "inclination", "value": "20.77948544470438", "units": "deg", "name": "i", "sigma": 3.51617302559583e-06, "label": "i"}]}, "elements": [{"sigma": "1.0668E-8", "name": "e", "title": "eccentricity", "value": ".6509088552804247", "units": null, "label": "e"}, {"label": "a", "sigma": "4.0406E-9", "name": "a", "units": "au", "value": "2.820634972513779", "title": "semi-major axis"}, {"label": "q", "name": "q", "sigma": "3.0433E-8", "title": "perihelion distance", "value": ".9846586913909028", "units": "au"}, {"label": "i", "units": "deg", "value": "20.77418452804262", "title": "inclination; angle with respect to x-y ecliptic plane", "sigma": "3.5144E-6", "name": "i"}, {"label": "node", "value": "76.38374136742331", "title": "longitude of the ascending node", "units": "deg", "sigma": "8.9449E-6", "name": "om"}, {"name": "w", "sigma": "8.7515E-6", "title": "argument of perihelion", "value": "20.49372055383279", "units": "deg", "label": "peri"}, {"units": "deg", "title": "mean anomaly", "value": "187.9170695100077", "name": "ma", "sigma": "1.6301E-6", "label": "M"}, {"label": "tp", "sigma": "9.3187E-6", "name": "tp", "value": "2462027.592435596157", "title": "time of perihelion passage", "units": "TDB"}, {"title": "sidereal orbital period", "value": "1730.289436417592", "units": "d", "sigma": "3.718E-6", "name": "per", "label": "period"}, {"units": "deg/d", "title": "mean motion", "value": ".2080576766077631", "name": "n", "sigma": "4.4707E-10", "label": "n"}, {"sigma": "6.6707E-9", "name": "ad", "units": "au", "title": "aphelion distance", "value": "4.656611253636656", "label": "Q"}], "epoch": "2461200.5"}